[{"OBJECT_NAME":"COSMOS 2414","OBJECT_ID":"2005-002A","EPOCH":"2026-03-09T14:50:05.809056","MEAN_MOTION":13.87915528,"ECCENTRICITY":0.0038721,"INCLINATION":82.9481,"RA_OF_ASC_NODE":118.9723,"ARG_OF_PERICENTER":252.5669,"MEAN_ANOMALY":107.1259,"EPHEMERIS_TYPE":0,"CLASSIFICATION_TYPE":"U","NORAD_CAT_ID":28521,"ELEMENT_SET_NO":999,"REV_AT_EPOCH":7000,"BSTAR":5.6357e-5,"MEAN_MOTION_DOT":8.3e-7,"MEAN_MOTION_DDOT":0},{"OBJECT_NAME":"COSMOS 2142","OBJECT_ID":"1991-029A","EPOCH":"2026-03-09T17:29:59.315136","MEAN_MOTION":13.73369179,"ECCENTRICITY":0.0038981,"INCLINATION":82.9568,"RA_OF_ASC_NODE":312.1988,"ARG_OF_PERICENTER":123.8889,"MEAN_ANOMALY":296.8629,"EPHEMERIS_TYPE":0,"CLASSIFICATION_TYPE":"U","NORAD_CAT_ID":21230,"ELEMENT_SET_NO":999,"REV_AT_EPOCH":74870,"BSTAR":4.958341e-5,"MEAN_MOTION_DOT":6.2e-7,"MEAN_MOTION_DDOT":0}]
